ORBCOMM FM24            
1 25478U 98053D   24240.92359776  .00003359  00000+0  11881-2 0  9991
2 25478  45.0064 217.8694 0001963 273.9137  86.1487 14.36221210355251
ORBCOMM FM25            
1 25479U 98053E   24239.98692687  .00003293  00000+0  11662-2 0  9991
2 25479  45.0056 220.5473 0004066 242.7979 117.2454 14.36203710355417
ORBCOMM FM26            
1 25480U 98053F   24240.66462617  .00002870  00000+0  10355-2 0  9996
2 25480  45.0053 211.9547 0006575 253.5027 106.5098 14.35560307355448
ORBCOMM FM27            
1 25481U 98053G   24240.67162115  .00003279  00000+0  11615-2 0  9992
2 25481  45.0040 217.5708 0002266 315.8798  44.1869 14.36192199355440
ORBCOMM FM28            
1 25482U 98053H   24240.48733294  .00002957  00000+0  10440-2 0  9991
2 25482  45.0049 156.5600 0004206 283.6069  76.4310 14.36588226356093
ORBCOMM FM30            
1 25980U 99065A   24240.75551429  .00002814  00000+0  10135-2 0  9999
2 25980  45.0325  37.1618 0005114 329.2199  30.8348 14.35702709292251
ORBCOMM FM31            
1 25981U 99065B   24240.72158383  .00002444  00000+0  88725-3 0  9999
2 25981  45.0241  30.9415 0002154 353.0457   7.0360 14.35685779291805
ORBCOMM FM32            
1 25982U 99065C   24240.77894627  .00002739  00000+0  10078-2 0  9995
2 25982  45.0167  45.2468 0004365   3.3430 356.7446 14.34697635292434
