<?xml version="1.0" encoding="UTF-8"?>
<ndm xmlns:xsi="http://www.w3.org/2001/XMLSchema-instance" xsi:noNamespaceSchemaLocation="https://sanaregistry.org/r/ndmxml_unqualified/ndmxml-2.0.0-master-2.0.xsd">
<omm id="CCSDS_OMM_VERS" version="2.0">
<header><CREATION_DATE/><ORIGINATOR/></header><body><segment><metadata><OBJECT_NAME>ORBCOMM FM24</OBJECT_NAME><OBJECT_ID>1998-053D</OBJECT_ID><CENTER_NAME>EARTH</CENTER_NAME><REF_FRAME>TEME</REF_FRAME><TIME_SYSTEM>UTC</TIME_SYSTEM><MEAN_ELEMENT_THEORY>SGP4</MEAN_ELEMENT_THEORY></metadata><data><meanElements><EPOCH>2024-08-27T22:09:58.846464</EPOCH><MEAN_MOTION>14.36221210</MEAN_MOTION><ECCENTRICITY>.0001963</ECCENTRICITY><INCLINATION>45.0064</INCLINATION><RA_OF_ASC_NODE>217.8694</RA_OF_ASC_NODE><ARG_OF_PERICENTER>273.9137</ARG_OF_PERICENTER><MEAN_ANOMALY>86.1487</MEAN_ANOMALY></meanElements><tleParameters><EPHEMERIS_TYPE>0</EPHEMERIS_TYPE><CLASSIFICATION_TYPE>U</CLASSIFICATION_TYPE><NORAD_CAT_ID>25478</NORAD_CAT_ID><ELEMENT_SET_NO>999</ELEMENT_SET_NO><REV_AT_EPOCH>35525</REV_AT_EPOCH><BSTAR>.11881E-2</BSTAR><MEAN_MOTION_DOT>.3359E-4</MEAN_MOTION_DOT><MEAN_MOTION_DDOT>0</MEAN_MOTION_DDOT></tleParameters></data></segment></body></omm>
<omm id="CCSDS_OMM_VERS" version="2.0">
<header><CREATION_DATE/><ORIGINATOR/></header><body><segment><metadata><OBJECT_NAME>ORBCOMM FM25</OBJECT_NAME><OBJECT_ID>1998-053E</OBJECT_ID><CENTER_NAME>EARTH</CENTER_NAME><REF_FRAME>TEME</REF_FRAME><TIME_SYSTEM>UTC</TIME_SYSTEM><MEAN_ELEMENT_THEORY>SGP4</MEAN_ELEMENT_THEORY></metadata><data><meanElements><EPOCH>2024-08-26T23:41:10.481568</EPOCH><MEAN_MOTION>14.36203710</MEAN_MOTION><ECCENTRICITY>.0004066</ECCENTRICITY><INCLINATION>45.0056</INCLINATION><RA_OF_ASC_NODE>220.5473</RA_OF_ASC_NODE><ARG_OF_PERICENTER>242.7979</ARG_OF_PERICENTER><MEAN_ANOMALY>117.2454</MEAN_ANOMALY></meanElements><tleParameters><EPHEMERIS_TYPE>0</EPHEMERIS_TYPE><CLASSIFICATION_TYPE>U</CLASSIFICATION_TYPE><NORAD_CAT_ID>25479</NORAD_CAT_ID><ELEMENT_SET_NO>999</ELEMENT_SET_NO><REV_AT_EPOCH>35541</REV_AT_EPOCH><BSTAR>.11662E-2</BSTAR><MEAN_MOTION_DOT>.3293E-4</MEAN_MOTION_DOT><MEAN_MOTION_DDOT>0</MEAN_MOTION_DDOT></tleParameters></data></segment></body></omm>
<omm id="CCSDS_OMM_VERS" version="2.0">
<header><CREATION_DATE/><ORIGINATOR/></header><body><segment><metadata><OBJECT_NAME>ORBCOMM FM26</OBJECT_NAME><OBJECT_ID>1998-053F</OBJECT_ID><CENTER_NAME>EARTH</CENTER_NAME><REF_FRAME>TEME</REF_FRAME><TIME_SYSTEM>UTC</TIME_SYSTEM><MEAN_ELEMENT_THEORY>SGP4</MEAN_ELEMENT_THEORY></metadata><data><meanElements><EPOCH>2024-08-27T15:57:03.701088</EPOCH><MEAN_MOTION>14.35560307</MEAN_MOTION><ECCENTRICITY>.0006575</ECCENTRICITY><INCLINATION>45.0053</INCLINATION><RA_OF_ASC_NODE>211.9547</RA_OF_ASC_NODE><ARG_OF_PERICENTER>253.5027</ARG_OF_PERICENTER><MEAN_ANOMALY>106.5098</MEAN_ANOMALY></meanElements><tleParameters><EPHEMERIS_TYPE>0</EPHEMERIS_TYPE><CLASSIFICATION_TYPE>U</CLASSIFICATION_TYPE><NORAD_CAT_ID>25480</NORAD_CAT_ID><ELEMENT_SET_NO>999</ELEMENT_SET_NO><REV_AT_EPOCH>35544</REV_AT_EPOCH><BSTAR>.10355E-2</BSTAR><MEAN_MOTION_DOT>.287E-4</MEAN_MOTION_DOT><MEAN_MOTION_DDOT>0</MEAN_MOTION_DDOT></tleParameters></data></segment></body></omm>
<omm id="CCSDS_OMM_VERS" version="2.0">
<header><CREATION_DATE/><ORIGINATOR/></header><body><segment><metadata><OBJECT_NAME>ORBCOMM FM27</OBJECT_NAME><OBJECT_ID>1998-053G</OBJECT_ID><CENTER_NAME>EARTH</CENTER_NAME><REF_FRAME>TEME</REF_FRAME><TIME_SYSTEM>UTC</TIME_SYSTEM><MEAN_ELEMENT_THEORY>SGP4</MEAN_ELEMENT_THEORY></metadata><data><meanElements><EPOCH>2024-08-27T16:07:08.067360</EPOCH><MEAN_MOTION>14.36192199</MEAN_MOTION><ECCENTRICITY>.0002266</ECCENTRICITY><INCLINATION>45.0040</INCLINATION><RA_OF_ASC_NODE>217.5708</RA_OF_ASC_NODE><ARG_OF_PERICENTER>315.8798</ARG_OF_PERICENTER><MEAN_ANOMALY>44.1869</MEAN_ANOMALY></meanElements><tleParameters><EPHEMERIS_TYPE>0</EPHEMERIS_TYPE><CLASSIFICATION_TYPE>U</CLASSIFICATION_TYPE><NORAD_CAT_ID>25481</NORAD_CAT_ID><ELEMENT_SET_NO>999</ELEMENT_SET_NO><REV_AT_EPOCH>35544</REV_AT_EPOCH><BSTAR>.11615E-2</BSTAR><MEAN_MOTION_DOT>.3279E-4</MEAN_MOTION_DOT><MEAN_MOTION_DDOT>0</MEAN_MOTION_DDOT></tleParameters></data></segment></body></omm>
<omm id="CCSDS_OMM_VERS" version="2.0">
<header><CREATION_DATE/><ORIGINATOR/></header><body><segment><metadata><OBJECT_NAME>ORBCOMM FM28</OBJECT_NAME><OBJECT_ID>1998-053H</OBJECT_ID><CENTER_NAME>EARTH</CENTER_NAME><REF_FRAME>TEME</REF_FRAME><TIME_SYSTEM>UTC</TIME_SYSTEM><MEAN_ELEMENT_THEORY>SGP4</MEAN_ELEMENT_THEORY></metadata><data><meanElements><EPOCH>2024-08-27T11:41:45.566016</EPOCH><MEAN_MOTION>14.36588226</MEAN_MOTION><ECCENTRICITY>.0004206</ECCENTRICITY><INCLINATION>45.0049</INCLINATION><RA_OF_ASC_NODE>156.5600</RA_OF_ASC_NODE><ARG_OF_PERICENTER>283.6069</ARG_OF_PERICENTER><MEAN_ANOMALY>76.4310</MEAN_ANOMALY></meanElements><tleParameters><EPHEMERIS_TYPE>0</EPHEMERIS_TYPE><CLASSIFICATION_TYPE>U</CLASSIFICATION_TYPE><NORAD_CAT_ID>25482</NORAD_CAT_ID><ELEMENT_SET_NO>999</ELEMENT_SET_NO><REV_AT_EPOCH>35609</REV_AT_EPOCH><BSTAR>.1044E-2</BSTAR><MEAN_MOTION_DOT>.2957E-4</MEAN_MOTION_DOT><MEAN_MOTION_DDOT>0</MEAN_MOTION_DDOT></tleParameters></data></segment></body></omm>
<omm id="CCSDS_OMM_VERS" version="2.0">
<header><CREATION_DATE/><ORIGINATOR/></header><body><segment><metadata><OBJECT_NAME>ORBCOMM FM30</OBJECT_NAME><OBJECT_ID>1999-065A</OBJECT_ID><CENTER_NAME>EARTH</CENTER_NAME><REF_FRAME>TEME</REF_FRAME><TIME_SYSTEM>UTC</TIME_SYSTEM><MEAN_ELEMENT_THEORY>SGP4</MEAN_ELEMENT_THEORY></metadata><data><meanElements><EPOCH>2024-08-27T18:07:56.434656</EPOCH><MEAN_MOTION>14.35702709</MEAN_MOTION><ECCENTRICITY>.0005114</ECCENTRICITY><INCLINATION>45.0325</INCLINATION><RA_OF_ASC_NODE>37.1618</RA_OF_ASC_NODE><ARG_OF_PERICENTER>329.2199</ARG_OF_PERICENTER><MEAN_ANOMALY>30.8348</MEAN_ANOMALY></meanElements><tleParameters><EPHEMERIS_TYPE>0</EPHEMERIS_TYPE><CLASSIFICATION_TYPE>U</CLASSIFICATION_TYPE><NORAD_CAT_ID>25980</NORAD_CAT_ID><ELEMENT_SET_NO>999</ELEMENT_SET_NO><REV_AT_EPOCH>29225</REV_AT_EPOCH><BSTAR>.10135E-2</BSTAR><MEAN_MOTION_DOT>.2814E-4</MEAN_MOTION_DOT><MEAN_MOTION_DDOT>0</MEAN_MOTION_DDOT></tleParameters></data></segment></body></omm>
<omm id="CCSDS_OMM_VERS" version="2.0">
<header><CREATION_DATE/><ORIGINATOR/></header><body><segment><metadata><OBJECT_NAME>ORBCOMM FM31</OBJECT_NAME><OBJECT_ID>1999-065B</OBJECT_ID><CENTER_NAME>EARTH</CENTER_NAME><REF_FRAME>TEME</REF_FRAME><TIME_SYSTEM>UTC</TIME_SYSTEM><MEAN_ELEMENT_THEORY>SGP4</MEAN_ELEMENT_THEORY></metadata><data><meanElements><EPOCH>2024-08-27T17:19:04.842912</EPOCH><MEAN_MOTION>14.35685779</MEAN_MOTION><ECCENTRICITY>.0002154</ECCENTRICITY><INCLINATION>45.0241</INCLINATION><RA_OF_ASC_NODE>30.9415</RA_OF_ASC_NODE><ARG_OF_PERICENTER>353.0457</ARG_OF_PERICENTER><MEAN_ANOMALY>7.0360</MEAN_ANOMALY></meanElements><tleParameters><EPHEMERIS_TYPE>0</EPHEMERIS_TYPE><CLASSIFICATION_TYPE>U</CLASSIFICATION_TYPE><NORAD_CAT_ID>25981</NORAD_CAT_ID><ELEMENT_SET_NO>999</ELEMENT_SET_NO><REV_AT_EPOCH>29180</REV_AT_EPOCH><BSTAR>.88725E-3</BSTAR><MEAN_MOTION_DOT>.2444E-4</MEAN_MOTION_DOT><MEAN_MOTION_DDOT>0</MEAN_MOTION_DDOT></tleParameters></data></segment></body></omm>
<omm id="CCSDS_OMM_VERS" version="2.0">
<header><CREATION_DATE/><ORIGINATOR/></header><body><segment><metadata><OBJECT_NAME>ORBCOMM FM32</OBJECT_NAME><OBJECT_ID>1999-065C</OBJECT_ID><CENTER_NAME>EARTH</CENTER_NAME><REF_FRAME>TEME</REF_FRAME><TIME_SYSTEM>UTC</TIME_SYSTEM><MEAN_ELEMENT_THEORY>SGP4</MEAN_ELEMENT_THEORY></metadata><data><meanElements><EPOCH>2024-08-27T18:41:40.957728</EPOCH><MEAN_MOTION>14.34697635</MEAN_MOTION><ECCENTRICITY>.0004365</ECCENTRICITY><INCLINATION>45.0167</INCLINATION><RA_OF_ASC_NODE>45.2468</RA_OF_ASC_NODE><ARG_OF_PERICENTER>3.3430</ARG_OF_PERICENTER><MEAN_ANOMALY>356.7446</MEAN_ANOMALY></meanElements><tleParameters><EPHEMERIS_TYPE>0</EPHEMERIS_TYPE><CLASSIFICATION_TYPE>U</CLASSIFICATION_TYPE><NORAD_CAT_ID>25982</NORAD_CAT_ID><ELEMENT_SET_NO>999</ELEMENT_SET_NO><REV_AT_EPOCH>29243</REV_AT_EPOCH><BSTAR>.10078E-2</BSTAR><MEAN_MOTION_DOT>.2739E-4</MEAN_MOTION_DOT><MEAN_MOTION_DDOT>0</MEAN_MOTION_DDOT></tleParameters></data></segment></body></omm>

</ndm>
